{
  "type": "FeatureCollection",
  "features": [
    {
      "type": "Feature",
      "properties": {
        "norad_id": 41866,
        "name": "GOES 16",
        "group": "weather",
        "lat": -0.04030556575683107,
        "lon": 44.544338131289564,
        "alt_km": 35795.62512022119,
        "timestamp": "2025-12-21T03:56:50.501245+00:00",
        "meta_object_name": "GOES 16",
        "meta_object_id": "2016-071A",
        "meta_epoch": "2025-12-20T16:09:21.798144",
        "meta_mean_motion": 1.00272116,
        "meta_eccentricity": 0.0003023,
        "meta_inclination": 0.075,
        "meta_ra_of_asc_node": 102.2495,
        "meta_arg_of_pericenter": 163.5327,
        "meta_mean_anomaly": 321.3933,
        "meta_ephemeris_type": 0,
        "meta_classification_type": "U",
        "meta_norad_cat_id": 41866,
        "meta_element_set_no": 999,
        "meta_rev_at_epoch": 3331,
        "meta_bstar": 0,
        "meta_mean_motion_dot": -6.8e-07,
        "meta_mean_motion_ddot": 0,
        "tle_line1": "1 41866U 16071A   25354.67316896 -.00000068  00000+0  00000+0 0  9998",
        "tle_line2": "2 41866   0.0750 102.2495 0003023 163.5327 321.3933  1.00272116 33311"
      },
      "geometry": {
        "type": "Point",
        "coordinates": [
          44.544338131289564,
          -0.04030556575683107
        ]
      }
    },
    {
      "type": "Feature",
      "properties": {
        "norad_id": 41882,
        "name": "FENGYUN 4A",
        "group": "weather",
        "lat": -0.3723176198339794,
        "lon": -87.05937574126969,
        "alt_km": 35774.963536603784,
        "timestamp": "2025-12-21T03:56:50.501256+00:00",
        "meta_object_name": "FENGYUN 4A",
        "meta_object_id": "2016-077A",
        "meta_epoch": "2025-12-19T13:51:06.687072",
        "meta_mean_motion": 1.00266581,
        "meta_eccentricity": 0.0004506,
        "meta_inclination": 1.866,
        "meta_ra_of_asc_node": 82.3247,
        "meta_arg_of_pericenter": 142.8816,
        "meta_mean_anomaly": 194.7423,
        "meta_ephemeris_type": 0,
        "meta_classification_type": "U",
        "meta_norad_cat_id": 41882,
        "meta_element_set_no": 999,
        "meta_rev_at_epoch": 3312,
        "meta_bstar": 0,
        "meta_mean_motion_dot": -3.34e-06,
        "meta_mean_motion_ddot": 0,
        "tle_line1": "1 41882U 16077A   25353.57716073 -.00000334  00000+0  00000+0 0  9997",
        "tle_line2": "2 41882   1.8660  82.3247 0004506 142.8816 194.7423  1.00266581 33125"
      },
      "geometry": {
        "type": "Point",
        "coordinates": [
          -87.05937574126969,
          -0.3723176198339794
        ]
      }
    },
    {
      "type": "Feature",
      "properties": {
        "norad_id": 41884,
        "name": "CYGFM05",
        "group": "weather",
        "lat": -23.651955885937262,
        "lon": -149.09487275650065,
        "alt_km": 418.0311303629687,
        "timestamp": "2025-12-21T03:56:50.501266+00:00",
        "meta_object_name": "CYGFM05",
        "meta_object_id": "2016-078A",
        "meta_epoch": "2025-12-20T09:57:19.872576",
        "meta_mean_motion": 15.47904275,
        "meta_eccentricity": 0.00107959,
        "meta_inclination": 34.9606,
        "meta_ra_of_asc_node": 356.9859,
        "meta_arg_of_pericenter": 250.6925,
        "meta_mean_anomaly": 109.2629,
        "meta_ephemeris_type": 0,
        "meta_classification_type": "U",
        "meta_norad_cat_id": 41884,
        "meta_element_set_no": 999,
        "meta_rev_at_epoch": 50095,
        "meta_bstar": 0.00028174579,
        "meta_mean_motion_dot": 0.00015144,
        "meta_mean_motion_ddot": 0,
        "tle_line1": "1 41884U 16078A   25354.41481334  .00015144  00000+0  28175-3 0  9994",
        "tle_line2": "2 41884  34.9606 356.9859 0010795 250.6925 109.2629 15.47904275500953"
      },
      "geometry": {
        "type": "Point",
        "coordinates": [
          -149.09487275650065,
          -23.651955885937262
        ]
      }
    },
    {
      "type": "Feature",
      "properties": {
        "norad_id": 41885,
        "name": "CYGFM04",
        "group": "weather",
        "lat": -4.225132112983994,
        "lon": 152.69370848201893,
        "alt_km": 414.73174102993653,
        "timestamp": "2025-12-21T03:56:50.501276+00:00",
        "meta_object_name": "CYGFM04",
        "meta_object_id": "2016-078B",
        "meta_epoch": "2025-12-20T08:36:05.783328",
        "meta_mean_motion": 15.50664937,
        "meta_eccentricity": 0.00097019,
        "meta_inclination": 34.9357,
        "meta_ra_of_asc_node": 331.9095,
        "meta_arg_of_pericenter": 275.107,
        "meta_mean_anomaly": 84.8545,
        "meta_ephemeris_type": 0,
        "meta_classification_type": "U",
        "meta_norad_cat_id": 41885,
        "meta_element_set_no": 999,
        "meta_rev_at_epoch": 50112,
        "meta_bstar": 0.00030127254,
        "meta_mean_motion_dot": 0.0001786,
        "meta_mean_motion_ddot": 0,
        "tle_line1": "1 41885U 16078B   25354.35840027  .00017860  00000+0  30127-3 0  9993",
        "tle_line2": "2 41885  34.9357 331.9095 0009701 275.1070  84.8545 15.50664937501127"
      },
      "geometry": {
        "type": "Point",
        "coordinates": [
          152.69370848201893,
          -4.225132112983994
        ]
      }
    },
    {
      "type": "Feature",
      "properties": {
        "norad_id": 41886,
        "name": "CYGFM02",
        "group": "weather",
        "lat": -30.604968852514336,
        "lon": -157.26580861289125,
        "alt_km": 406.582600625944,
        "timestamp": "2025-12-21T03:56:50.501286+00:00",
        "meta_object_name": "CYGFM02",
        "meta_object_id": "2016-078C",
        "meta_epoch": "2025-12-20T08:22:53.365728",
        "meta_mean_motion": 15.52066402,
        "meta_eccentricity": 0.00113856,
        "meta_inclination": 34.9446,
        "meta_ra_of_asc_node": 330.1965,
        "meta_arg_of_pericenter": 275.5269,
        "meta_mean_anomaly": 84.4156,
        "meta_ephemeris_type": 0,
        "meta_classification_type": "U",
        "meta_norad_cat_id": 41886,
        "meta_element_set_no": 999,
        "meta_rev_at_epoch": 50125,
        "meta_bstar": 0.00030781322,
        "meta_mean_motion_dot": 0.00019209,
        "meta_mean_motion_ddot": 0,
        "tle_line1": "1 41886U 16078C   25354.34922877  .00019209  00000+0  30781-3 0  9992",
        "tle_line2": "2 41886  34.9446 330.1965 0011385 275.5269  84.4156 15.52066402501252"
      },
      "geometry": {
        "type": "Point",
        "coordinates": [
          -157.26580861289125,
          -30.604968852514336
        ]
      }
    },
    {
      "type": "Feature",
      "properties": {
        "norad_id": 41887,
        "name": "CYGFM01",
        "group": "weather",
        "lat": -33.28013774846386,
        "lon": -75.6822673531078,
        "alt_km": 417.37576694359905,
        "timestamp": "2025-12-21T03:56:50.501295+00:00",
        "meta_object_name": "CYGFM01",
        "meta_object_id": "2016-078D",
        "meta_epoch": "2025-12-20T17:25:55.765632",
        "meta_mean_motion": 15.48500572,
        "meta_eccentricity": 0.0010488,
        "meta_inclination": 34.9437,
        "meta_ra_of_asc_node": 357.2428,
        "meta_arg_of_pericenter": 245.7557,
        "meta_mean_anomaly": 114.2069,
        "meta_ephemeris_type": 0,
        "meta_classification_type": "U",
        "meta_norad_cat_id": 41887,
        "meta_element_set_no": 999,
        "meta_rev_at_epoch": 50094,
        "meta_bstar": 0.00026989,
        "meta_mean_motion_dot": 0.0001481,
        "meta_mean_motion_ddot": 0,
        "tle_line1": "1 41887U 16078D   25354.72633988  .00014810  00000+0  26989-3 0  9995",
        "tle_line2": "2 41887  34.9437 357.2428 0010488 245.7557 114.2069 15.48500572500945"
      },
      "geometry": {
        "type": "Point",
        "coordinates": [
          -75.6822673531078,
          -33.28013774846386
        ]
      }
    },
    {
      "type": "Feature",
      "properties": {
        "norad_id": 41888,
        "name": "CYGFM08",
        "group": "weather",
        "lat": 6.836219114244677,
        "lon": -12.845290421903249,
        "alt_km": 416.7242655688178,
        "timestamp": "2025-12-21T03:56:50.501305+00:00",
        "meta_object_name": "CYGFM08",
        "meta_object_id": "2016-078E",
        "meta_epoch": "2025-12-20T09:20:35.850048",
        "meta_mean_motion": 15.49716188,
        "meta_eccentricity": 0.00119728,
        "meta_inclination": 34.9468,
        "meta_ra_of_asc_node": 342.3498,
        "meta_arg_of_pericenter": 265.5444,
        "meta_mean_anomaly": 94.391,
        "meta_ephemeris_type": 0,
        "meta_classification_type": "U",
        "meta_norad_cat_id": 41888,
        "meta_element_set_no": 999,
        "meta_rev_at_epoch": 50112,
        "meta_bstar": 0.00029221283,
        "meta_mean_motion_dot": 0.00016759,
        "meta_mean_motion_ddot": 0,
        "tle_line1": "1 41888U 16078E   25354.38930382  .00016759  00000+0  29221-3 0  9992",
        "tle_line2": "2 41888  34.9468 342.3498 0011972 265.5444  94.3910 15.49716188501123"
      },
      "geometry": {
        "type": "Point",
        "coordinates": [
          -12.845290421903249,
          6.836219114244677
        ]
      }
    }
  ]
}